DELTA 2 R/B(1)          
1 20453U 90008B   25355.21264808  .00032705  00000+0  51239-3 0  9991
2 20453  35.6080 325.7914 0111027 255.4270 103.4128 15.45858150913943
COSMOS 2058             
1 20465U 90010A   25355.10476142  .00003716  00000+0  22351-3 0  9994
2 20465  82.4700 124.8028 0009048 239.6807 120.3528 15.10546640930376
SL-14 R/B               
1 20466U 90010B   25354.43486586  .00000339  00000+0  38245-4 0  9991
2 20466  82.5020 341.8195 0019286 196.6707 163.3877 14.83477819916733
SL-14 R/B               
1 20511U 90018B   25354.91657773  .00000374  00000+0  44046-4 0  9996
2 20511  82.5216 296.7221 0016290 357.0104   3.1010 14.82054365910915
HST                     
1 20580U 90037B   25354.95569547  .00004654  00000+0  15692-3 0  9997
2 20580  28.4662 216.5634 0002148 340.2259  19.8252 15.28150746761259
SL-16 R/B               
1 20625U 90046B   25354.66345988 -.00000274  00000+0 -11703-3 0  9991
2 20625  70.9992 103.8815 0012041  59.2567 300.9740 14.14998786837212
COSMOS 2084             
1 20663U 90055A   25355.07251551  .00001736  00000+0  13473-3 0  9999
2 20663  62.7896 243.5998 0030368 175.8087 184.3274 15.05063792924487
SL-6 R/B(2)             
1 20666U 90055D   25354.81715245  .00001472  00000+0  12300-3 0  9993
2 20666  62.7811 161.9690 0013591 314.3912  45.6073 15.03107244926336
SL-8 R/B                
1 20775U 90078B   25355.01282407  .00013191  00000+0  40762-3 0  9995
2 20775  82.9051 321.9020 0370693 278.0493  77.8828 14.86234403797600
SL-8 R/B                
1 21088U 91006B   25355.18831292  .00000116  00000+0  10127-3 0  9990
2 21088  82.9418 228.4287 0021189 254.6925 224.0821 13.77491592753260
OKEAN-3                 
1 21397U 91039A   25355.19733681  .00001814  00000+0  12855-3 0  9999
2 21397  82.5174  52.8619 0013514 233.6419 126.3561 15.04169963853233
COSMOS 2151             
1 21422U 91042A   25355.16357918  .00001318  00000+0  10452-3 0  9994
2 21422  82.4963 159.3851 0011871 330.5096  29.5456 14.99715117851427
