CCSDS_OMM_VERS = 2.0
CREATION_DATE  = 
ORIGINATOR     = 

OBJECT_NAME    = DELTA 2 R/B(1)
OBJECT_ID      = 1990-008B
CENTER_NAME    = EARTH
REF_FRAME      = TEME
TIME_SYSTEM    = UTC
MEAN_ELEMENT_THEORY = SGP/SGP4

EPOCH          = 2025-12-21T05:06:12.794112
MEAN_MOTION    = 15.45858150
ECCENTRICITY   = .0111027
INCLINATION    = 35.6080
RA_OF_ASC_NODE = 325.7914
ARG_OF_PERICENTER = 255.4270
MEAN_ANOMALY   = 103.4128

EPHEMERIS_TYPE = 0
CLASSIFICATION_TYPE = U
NORAD_CAT_ID   = 20453
ELEMENT_SET_NO = 999
REV_AT_EPOCH   = 91394
BSTAR          = .51239E-3
MEAN_MOTION_DOT = .32705E-3
MEAN_MOTION_DDOT = 0

CCSDS_OMM_VERS = 2.0
CREATION_DATE  = 
ORIGINATOR     = 

OBJECT_NAME    = COSMOS 2058
OBJECT_ID      = 1990-010A
CENTER_NAME    = EARTH
REF_FRAME      = TEME
TIME_SYSTEM    = UTC
MEAN_ELEMENT_THEORY = SGP/SGP4

EPOCH          = 2025-12-21T02:30:51.386688
MEAN_MOTION    = 15.10546640
ECCENTRICITY   = .0009048
INCLINATION    = 82.4700
RA_OF_ASC_NODE = 124.8028
ARG_OF_PERICENTER = 239.6807
MEAN_ANOMALY   = 120.3528

EPHEMERIS_TYPE = 0
CLASSIFICATION_TYPE = U
NORAD_CAT_ID   = 20465
ELEMENT_SET_NO = 999
REV_AT_EPOCH   = 93037
BSTAR          = .22351E-3
MEAN_MOTION_DOT = .3716E-4
MEAN_MOTION_DDOT = 0

CCSDS_OMM_VERS = 2.0
CREATION_DATE  = 
ORIGINATOR     = 

OBJECT_NAME    = SL-14 R/B
OBJECT_ID      = 1990-010B
CENTER_NAME    = EARTH
REF_FRAME      = TEME
TIME_SYSTEM    = UTC
MEAN_ELEMENT_THEORY = SGP/SGP4

EPOCH          = 2025-12-20T10:26:12.410304
MEAN_MOTION    = 14.83477819
ECCENTRICITY   = .0019286
INCLINATION    = 82.5020
RA_OF_ASC_NODE = 341.8195
ARG_OF_PERICENTER = 196.6707
MEAN_ANOMALY   = 163.3877

EPHEMERIS_TYPE = 0
CLASSIFICATION_TYPE = U
NORAD_CAT_ID   = 20466
ELEMENT_SET_NO = 999
REV_AT_EPOCH   = 91673
BSTAR          = .38244617E-4
MEAN_MOTION_DOT = .339E-5
MEAN_MOTION_DDOT = 0

CCSDS_OMM_VERS = 2.0
CREATION_DATE  = 
ORIGINATOR     = 

OBJECT_NAME    = SL-14 R/B
OBJECT_ID      = 1990-018B
CENTER_NAME    = EARTH
REF_FRAME      = TEME
TIME_SYSTEM    = UTC
MEAN_ELEMENT_THEORY = SGP/SGP4

EPOCH          = 2025-12-20T21:59:52.315872
MEAN_MOTION    = 14.82054365
ECCENTRICITY   = .001629
INCLINATION    = 82.5216
RA_OF_ASC_NODE = 296.7221
ARG_OF_PERICENTER = 357.0104
MEAN_ANOMALY   = 3.1010

EPHEMERIS_TYPE = 0
CLASSIFICATION_TYPE = U
NORAD_CAT_ID   = 20511
ELEMENT_SET_NO = 999
REV_AT_EPOCH   = 91091
BSTAR          = .44046E-4
MEAN_MOTION_DOT = .374E-5
MEAN_MOTION_DDOT = 0

CCSDS_OMM_VERS = 2.0
CREATION_DATE  = 
ORIGINATOR     = 

OBJECT_NAME    = HST
OBJECT_ID      = 1990-037B
CENTER_NAME    = EARTH
REF_FRAME      = TEME
TIME_SYSTEM    = UTC
MEAN_ELEMENT_THEORY = SGP/SGP4

EPOCH          = 2025-12-20T22:56:12.088608
MEAN_MOTION    = 15.28150746
ECCENTRICITY   = .0002148
INCLINATION    = 28.4662
RA_OF_ASC_NODE = 216.5634
ARG_OF_PERICENTER = 340.2259
MEAN_ANOMALY   = 19.8252

EPHEMERIS_TYPE = 0
CLASSIFICATION_TYPE = U
NORAD_CAT_ID   = 20580
ELEMENT_SET_NO = 999
REV_AT_EPOCH   = 76125
BSTAR          = .15692E-3
MEAN_MOTION_DOT = .4654E-4
MEAN_MOTION_DDOT = 0

CCSDS_OMM_VERS = 2.0
CREATION_DATE  = 
ORIGINATOR     = 

OBJECT_NAME    = SL-16 R/B
OBJECT_ID      = 1990-046B
CENTER_NAME    = EARTH
REF_FRAME      = TEME
TIME_SYSTEM    = UTC
MEAN_ELEMENT_THEORY = SGP/SGP4

EPOCH          = 2025-12-20T15:55:22.933632
MEAN_MOTION    = 14.14998786
ECCENTRICITY   = .00120411
INCLINATION    = 70.9992
RA_OF_ASC_NODE = 103.8815
ARG_OF_PERICENTER = 59.2567
MEAN_ANOMALY   = 300.9740

EPHEMERIS_TYPE = 0
CLASSIFICATION_TYPE = U
NORAD_CAT_ID   = 20625
ELEMENT_SET_NO = 999
REV_AT_EPOCH   = 83721
BSTAR          = -.11703398E-3
MEAN_MOTION_DOT = -.274E-5
MEAN_MOTION_DDOT = 0

CCSDS_OMM_VERS = 2.0
CREATION_DATE  = 
ORIGINATOR     = 

OBJECT_NAME    = COSMOS 2084
OBJECT_ID      = 1990-055A
CENTER_NAME    = EARTH
REF_FRAME      = TEME
TIME_SYSTEM    = UTC
MEAN_ELEMENT_THEORY = SGP/SGP4

EPOCH          = 2025-12-21T01:44:25.340064
MEAN_MOTION    = 15.05063792
ECCENTRICITY   = .0030368
INCLINATION    = 62.7896
RA_OF_ASC_NODE = 243.5998
ARG_OF_PERICENTER = 175.8087
MEAN_ANOMALY   = 184.3274

EPHEMERIS_TYPE = 0
CLASSIFICATION_TYPE = U
NORAD_CAT_ID   = 20663
ELEMENT_SET_NO = 999
REV_AT_EPOCH   = 92448
BSTAR          = .13473E-3
MEAN_MOTION_DOT = .1736E-4
MEAN_MOTION_DDOT = 0

CCSDS_OMM_VERS = 2.0
CREATION_DATE  = 
ORIGINATOR     = 

OBJECT_NAME    = SL-6 R/B(2)
OBJECT_ID      = 1990-055D
CENTER_NAME    = EARTH
REF_FRAME      = TEME
TIME_SYSTEM    = UTC
MEAN_ELEMENT_THEORY = SGP/SGP4

EPOCH          = 2025-12-20T19:36:41.971680
MEAN_MOTION    = 15.03107244
ECCENTRICITY   = .0013591
INCLINATION    = 62.7811
RA_OF_ASC_NODE = 161.9690
ARG_OF_PERICENTER = 314.3912
MEAN_ANOMALY   = 45.6073

EPHEMERIS_TYPE = 0
CLASSIFICATION_TYPE = U
NORAD_CAT_ID   = 20666
ELEMENT_SET_NO = 999
REV_AT_EPOCH   = 92633
BSTAR          = .123E-3
MEAN_MOTION_DOT = .1472E-4
MEAN_MOTION_DDOT = 0

CCSDS_OMM_VERS = 2.0
CREATION_DATE  = 
ORIGINATOR     = 

OBJECT_NAME    = SL-8 R/B
OBJECT_ID      = 1990-078B
CENTER_NAME    = EARTH
REF_FRAME      = TEME
TIME_SYSTEM    = UTC
MEAN_ELEMENT_THEORY = SGP/SGP4

EPOCH          = 2025-12-21T00:18:27.999648
MEAN_MOTION    = 14.86234403
ECCENTRICITY   = .0370693
INCLINATION    = 82.9051
RA_OF_ASC_NODE = 321.9020
ARG_OF_PERICENTER = 278.0493
MEAN_ANOMALY   = 77.8828

EPHEMERIS_TYPE = 0
CLASSIFICATION_TYPE = U
NORAD_CAT_ID   = 20775
ELEMENT_SET_NO = 999
REV_AT_EPOCH   = 79760
BSTAR          = .40762E-3
MEAN_MOTION_DOT = .13191E-3
MEAN_MOTION_DDOT = 0

CCSDS_OMM_VERS = 2.0
CREATION_DATE  = 
ORIGINATOR     = 

OBJECT_NAME    = SL-8 R/B
OBJECT_ID      = 1991-006B
CENTER_NAME    = EARTH
REF_FRAME      = TEME
TIME_SYSTEM    = UTC
MEAN_ELEMENT_THEORY = SGP/SGP4

EPOCH          = 2025-12-21T04:31:10.236288
MEAN_MOTION    = 13.77491592
ECCENTRICITY   = .0021189
INCLINATION    = 82.9418
RA_OF_ASC_NODE = 228.4287
ARG_OF_PERICENTER = 254.6925
MEAN_ANOMALY   = 224.0821

EPHEMERIS_TYPE = 0
CLASSIFICATION_TYPE = U
NORAD_CAT_ID   = 21088
ELEMENT_SET_NO = 999
REV_AT_EPOCH   = 75326
BSTAR          = .10127E-3
MEAN_MOTION_DOT = .116E-5
MEAN_MOTION_DDOT = 0

CCSDS_OMM_VERS = 2.0
CREATION_DATE  = 
ORIGINATOR     = 

OBJECT_NAME    = OKEAN-3
OBJECT_ID      = 1991-039A
CENTER_NAME    = EARTH
REF_FRAME      = TEME
TIME_SYSTEM    = UTC
MEAN_ELEMENT_THEORY = SGP/SGP4

EPOCH          = 2025-12-21T04:44:09.900384
MEAN_MOTION    = 15.04169963
ECCENTRICITY   = .0013514
INCLINATION    = 82.5174
RA_OF_ASC_NODE = 52.8619
ARG_OF_PERICENTER = 233.6419
MEAN_ANOMALY   = 126.3561

EPHEMERIS_TYPE = 0
CLASSIFICATION_TYPE = U
NORAD_CAT_ID   = 21397
ELEMENT_SET_NO = 999
REV_AT_EPOCH   = 85323
BSTAR          = .12855E-3
MEAN_MOTION_DOT = .1814E-4
MEAN_MOTION_DDOT = 0

CCSDS_OMM_VERS = 2.0
CREATION_DATE  = 
ORIGINATOR     = 

OBJECT_NAME    = COSMOS 2151
OBJECT_ID      = 1991-042A
CENTER_NAME    = EARTH
REF_FRAME      = TEME
TIME_SYSTEM    = UTC
MEAN_ELEMENT_THEORY = SGP/SGP4

EPOCH          = 2025-12-21T03:55:33.241152
MEAN_MOTION    = 14.99715117
ECCENTRICITY   = .0011871
INCLINATION    = 82.4963
RA_OF_ASC_NODE = 159.3851
ARG_OF_PERICENTER = 330.5096
MEAN_ANOMALY   = 29.5456

EPHEMERIS_TYPE = 0
CLASSIFICATION_TYPE = U
NORAD_CAT_ID   = 21422
ELEMENT_SET_NO = 999
REV_AT_EPOCH   = 85142
BSTAR          = .10452E-3
MEAN_MOTION_DOT = .1318E-4
MEAN_MOTION_DDOT = 0

